
 PEER Ground Motion Database, Time Series Search Report -- NGA-West2 -- 2018-07-27


 -- Summary of PEER Ground Motion Database Search Criteria --
Magnitude Min:, -1.0e-06
Magnitude Max:, 99999
Rrup Min (km):, -1.0e-06
Rrup Max (km):, 99999
Rjb Min (km):, -1.0e-06
Rjb Max (km):, 99999
Vs30 Min (m/sec):, -1.0e-06
Vs30 Max (m/sec):, 99999
D9-95 Min (sec):, -1.0e-06
D9-95 Max (sec):, 99999
Scale Factor Min:, -1.0e-06
Scale Factor Max:, 99999
Period Array:, 
Weight Array:, 
Record Sequence Number:, 139,143,286,1165,1511,1521,1541,3750,4848,4882,8166
Earthquake Name:, 
Station Name:, 
User-Defined Maximum Number of Records:, 
Pulse:, 1
Damping Ratio:, 0.05
Scaling Method:, No Scaling
Suite Average:, Arithmetic
Single-Period-Scaling Period (sec):, 
Component:, RotD100
Fault Type:, All Types


 -- Summary of Metadata of Selected Records --
Result ID, Spectral Ordinate, Record Sequence Number, Mean Squared Error, Scale Factor, Tp-Pulse Period (sec), 5-75% Duration (sec), 5-95% Duration (sec), Arias Intensity (m/sec), Earthquake Name, Year, Station Name, Magnitude, Mechanism, Rjb (km), Rrup (km), Vs30 (m/sec), Lowest Useable Frequency (Hz), Initial-search Scale Factor, Horizontal-1 Acc. Filename, Horizontal-2 Acc. Filename, Vertical Acc. Filename
1, RotD100, 139, -, 1.0, -, 6.7, 11.3, 1.4, "Tabas_ Iran", 1978, "Dayhook", 7.35, Reverse, 0.0, 13.94, 471.53, 0.25, 1.0, RSN139_TABAS_DAY-L1.AT2, RSN139_TABAS_DAY-T1.AT2 , RSN139_TABAS_DAY-V1.AT2  
2, RotD100, 143, -, 1.0, 6.188, 8.3, 16.5, 11.8, "Tabas_ Iran", 1978, "Tabas", 7.35, Reverse, 1.79, 2.05, 766.77, 0.125, 1.0, RSN143_TABAS_TAB-L1.AT2, RSN143_TABAS_TAB-T1.AT2 , RSN143_TABAS_TAB-V1.AT2  
3, RotD100, 286, -, 1.0, -, 16.8, 27.0, 0.2, "Irpinia_ Italy-01", 1980, "Bisaccia", 6.9, Normal, 17.51, 21.26, 496.46, 0.15, 1.0, RSN286_ITALY_A-BIS000.AT2, RSN286_ITALY_A-BIS270.AT2 , RSN286_ITALY_A-BIS-UP.AT2  
4, RotD100, 1165, -, 1.0, 5.369, 8.2, 15.1, 0.8, "Kocaeli_ Turkey", 1999, "Izmit", 7.51, strike slip, 3.62, 7.21, 811.0, 0.125, 1.0, RSN1165_KOCAELI_IZT180.AT2, RSN1165_KOCAELI_IZT090.AT2 , RSN1165_KOCAELI_IZT-UP.AT2  
5, RotD100, 1511, -, 1.0, 4.732, 17.5, 29.5, 3.7, "Chi-Chi_ Taiwan", 1999, "TCU076", 7.62, Reverse Oblique, 2.74, 2.74, 614.98, 0.125, 1.0, RSN1511_CHICHI_TCU076-E.AT2, RSN1511_CHICHI_TCU076-N.AT2 , RSN1511_CHICHI_TCU076-V.AT2  
6, RotD100, 1521, -, 1.0, -, 21.8, 24.9, 3.0, "Chi-Chi_ Taiwan", 1999, "TCU089", 7.62, Reverse Oblique, 0.0, 9.0, 671.52, 0.0875, 1.0, RSN1521_CHICHI_TCU089-E.AT2, RSN1521_CHICHI_TCU089-N.AT2 , RSN1521_CHICHI_TCU089-V.AT2  
7, RotD100, 1541, -, 1.0, -, 17.8, 33.3, 1.6, "Chi-Chi_ Taiwan", 1999, "TCU116", 7.62, Reverse Oblique, 12.38, 12.38, 493.09, 0.0375, 1.0, RSN1541_CHICHI_TCU116-E.AT2, RSN1541_CHICHI_TCU116-N.AT2 , RSN1541_CHICHI_TCU116-V.AT2  
8, RotD100, 3750, -, 1.0, -, 8.0, 15.3, 0.9, "Cape Mendocino", 1992, "Loleta Fire Station", 7.01, Reverse, 23.46, 25.91, 515.65, 0.0625, 1.0, RSN3750_CAPEMEND_LFS270.AT2, RSN3750_CAPEMEND_LFS360.AT2 , RSN3750_CAPEMEND_LFS-UP.AT2  
9, RotD100, 4848, -, 1.0, -, 6.1, 16.6, 0.7, "Chuetsu-oki_ Japan", 2007, "Joetsu Ogataku", 6.8, Reverse, 16.77, 17.93, 414.23, 0.0875, 1.0, RSN4848_CHUETSU_65011NS.AT2, RSN4848_CHUETSU_65011EW.AT2 , RSN4848_CHUETSU_65011UD.AT2  
10, RotD100, 4882, -, 1.0, -, 7.4, 22.7, 1.8, "Chuetsu-oki_ Japan", 2007, "Ojiya City", 6.8, Reverse, 15.89, 23.44, 430.16, 0.1, 1.0, RSN4882_CHUETSU_65321NS.AT2, RSN4882_CHUETSU_65321EW.AT2 , RSN4882_CHUETSU_65321UD.AT2  
11, RotD100, 8166, -, 1.0, -, -, -, -, "Duzce_ Turkey", 1999, "IRIGM 498", 7.14, strike slip, 3.58, 3.58, 425.0, 0.1, 1.0, RSN8166_DUZCE_498-NS.AT2, RSN8166_DUZCE_498-EW.AT2 , RSN8166_DUZCE_498-UP.AT2  

 These records were obtained from the NGA-West2 On-Line Ground-Motion Database Tool
 These records are UNSCALED, AS RECORDED
 Filename Extension: 
   ,AT2 = Acceleration
   ,VT2 = Velocity
   ,DT2 = Displacement
 The users of the NGA-West2 databases, flatfiles, models and reports are requested to acknowledge the Pacific Earthquake Engineering Research Center (PEER) in their work and publications.

 -- Scaled Spectra used in Search & Scaling --
Period (sec),Arithmetic Mean pSa (g),Arithmetic Mean + Sigma pSa (g),Arithmetic Mean - Sigma pSa (g),RSN-139 RotD100 pSa (g),RSN-143 RotD100 pSa (g),RSN-286 RotD100 pSa (g),RSN-1165 RotD100 pSa (g),RSN-1511 RotD100 pSa (g),RSN-1521 RotD100 pSa (g),RSN-1541 RotD100 pSa (g),RSN-3750 RotD100 pSa (g),RSN-4848 RotD100 pSa (g),RSN-4882 RotD100 pSa (g),RSN-8166 RotD100 pSa (g)
0.01,0.3720488,0.61786627,0.22402956,0.4198511,0.8771414,0.1063496,0.2476936,0.4303343,0.3717079,0.1902061,0.2777546,0.3546336,0.408681,0.4081836
0.02,0.37624673,0.62561333,0.22627651,0.4218704,0.8842586,0.1066372,0.2493114,0.4377989,0.3740771,0.1903011,0.2795323,0.3490275,0.4024876,0.4434119
0.022,0.3832372,0.64955576,0.22610954,0.4257554,0.9271514,0.1063364,0.2499759,0.4521659,0.3770374,0.1917353,0.2805343,0.3521987,0.4040191,0.4486994
0.025,0.39459179,0.69201388,0.22499936,0.435618,1.003861,0.107435,0.2499716,0.4614819,0.3783166,0.190728,0.2842088,0.3597979,0.4087682,0.4603227
0.029,0.38848879,0.665956,0.22662689,0.4320463,0.9572087,0.1072221,0.2529859,0.4710521,0.377683,0.1908217,0.281825,0.3692192,0.4101158,0.4231969
0.03,0.39131489,0.67758447,0.22599004,0.4263078,0.9767402,0.1070679,0.2538395,0.4835636,0.3764539,0.1903418,0.2801549,0.3681632,0.4084417,0.4333893
0.032,0.39764559,0.68225556,0.23176362,0.4127676,0.965174,0.1071593,0.2584276,0.5370603,0.3794097,0.192133,0.2803685,0.3740017,0.4031008,0.464499
0.035,0.40724318,0.69980166,0.23699145,0.4208096,0.9637861,0.1062852,0.2657733,0.6126146,0.3740203,0.1939472,0.2779212,0.3725142,0.3986652,0.4933381
0.036,0.40894965,0.69940606,0.23911692,0.4215955,0.9678077,0.1066066,0.2715288,0.5956028,0.3832605,0.1932651,0.2829796,0.3734385,0.4048728,0.4974883
0.04,0.4192066,0.71816656,0.24469835,0.421784,0.975424,0.1075189,0.2715923,0.6040798,0.3973757,0.1909805,0.2891781,0.3506126,0.4305035,0.5722232
0.042,0.42449836,0.7339191,0.2455296,0.4236087,0.9820321,0.1076287,0.2662475,0.6397215,0.3967352,0.1915032,0.2910053,0.337399,0.4330333,0.6005675
0.044,0.4302962,0.74194509,0.24955327,0.4276362,0.9968185,0.1080269,0.2670563,0.6307865,0.3949804,0.1918758,0.2972323,0.3697102,0.4362134,0.6129217
0.045,0.4359784,0.75396522,0.25210336,0.429687,1.004233,0.1084162,0.2663308,0.6290078,0.3925112,0.1949678,0.3003699,0.3763733,0.4362633,0.6576021
0.046,0.43915558,0.76104804,0.25341058,0.4321737,1.007898,0.1088564,0.2627795,0.6598524,0.3895679,0.1984,0.3000841,0.3814342,0.4364193,0.6532459
0.048,0.43744118,0.75652856,0.25293796,0.4380594,1.010452,0.1094101,0.2584012,0.633217,0.3854264,0.2021101,0.2959962,0.3960369,0.4320449,0.6506988
0.05,0.43652793,0.74665851,0.25521256,0.4433326,1.006456,0.1100429,0.2691103,0.637206,0.3879645,0.2006871,0.3044867,0.4091068,0.4297414,0.6036729
0.055,0.4526382,0.80147699,0.25562972,0.4733096,1.121294,0.107444,0.2811755,0.6680101,0.4220247,0.20133,0.3050924,0.4265862,0.4392478,0.5335059
0.06,0.46990567,0.83474167,0.26452656,0.5070781,1.183435,0.1091775,0.294999,0.6260948,0.4231867,0.2064016,0.3165896,0.4547714,0.472722,0.5745067
0.065,0.45479987,0.78752992,0.2626477,0.5006747,1.102342,0.1129199,0.30484,0.572671,0.3898751,0.2035691,0.3135706,0.3999608,0.517028,0.5853474
0.067,0.47399666,0.83676999,0.26850011,0.5094373,1.166639,0.1142376,0.2980019,0.6672041,0.4065529,0.1974659,0.3149166,0.4381383,0.5406433,0.5607264
0.07,0.52274325,0.97538208,0.2801574,0.5445905,1.38451,0.1147476,0.2893856,0.7092472,0.4244008,0.1998546,0.3463815,0.5034776,0.5554689,0.6781115
0.075,0.56818203,1.16867342,0.27623698,0.5859712,1.742471,0.1155735,0.304271,0.6195997,0.4777732,0.2049528,0.3767885,0.5767246,0.5607497,0.6851271
0.08,0.62181688,1.4099228,0.27423929,0.6590976,2.124506,0.1144178,0.3488999,0.619662,0.5246804,0.2110754,0.3924905,0.5981609,0.505788,0.7412072
0.085,0.64682162,1.37002724,0.30537948,0.7657892,2.06012,0.1166525,0.3999455,0.6310431,0.5560316,0.2389862,0.4138434,0.6289832,0.5839515,0.7196916
0.09,0.64528723,1.3365622,0.31154226,0.7433702,2.02035,0.1159067,0.4195953,0.6060658,0.5561211,0.2609452,0.4673911,0.6977961,0.5723172,0.6383008
0.095,0.66035735,1.24519114,0.35020474,0.753859,1.838082,0.1136563,0.3989466,0.7129112,0.644219,0.2807798,0.5533998,0.7098595,0.5857533,0.6724644
0.1,0.72527635,1.40830629,0.37351661,0.9411516,2.062356,0.1111125,0.3429952,0.7308035,0.7095238,0.293886,0.6835532,0.7092021,0.6849753,0.7084807
0.11,0.77706454,1.58244208,0.38158066,0.8677369,2.339365,0.109117,0.3881562,0.6397931,0.6767576,0.2795574,0.7454136,0.7115523,0.8525066,0.9377542
0.12,0.85439835,1.77138007,0.4121061,1.111489,2.598506,0.1275987,0.400029,0.6400445,0.7466065,0.3134599,0.7168235,0.7400165,0.9875182,1.01629
0.13,0.92526067,1.93285017,0.44292482,1.208187,2.823991,0.179537,0.4276643,0.7821228,0.7286854,0.3122636,0.695599,0.7307833,1.138268,1.150766
0.133,0.93396705,1.96362426,0.44422677,1.168474,2.877504,0.1799781,0.4429732,0.7601668,0.7433951,0.3140466,0.7215881,0.7197147,1.190772,1.155025
0.14,0.98130716,2.04119298,0.47176517,1.296447,2.956703,0.1616794,0.5002498,0.7044219,0.8148901,0.4018669,0.7609466,0.6891101,1.419146,1.088918
0.15,1.02314569,2.11869051,0.49409156,1.318712,3.09444,0.1745288,0.6119981,0.853765,0.8350515,0.4105744,0.657779,0.7910698,1.479126,1.027558
0.16,1.04829495,2.24951755,0.48851466,1.399811,3.321818,0.1720972,0.5807319,0.9516724,0.8764025,0.4098157,0.6010354,0.8132224,1.300841,1.103797
0.17,1.06803246,2.14089683,0.53281098,1.324413,3.116818,0.1542647,0.5666774,1.08746,0.9462883,0.3865907,0.6924626,0.9622274,1.345509,1.165646
0.18,1.14648514,2.28590328,0.57501478,1.319734,3.355215,0.154622,0.6902443,1.04359,0.902153,0.4221531,0.8196601,1.290142,1.379981,1.233842
0.19,1.19951684,2.35059099,0.61211867,1.453309,3.404958,0.1696801,0.733196,0.9388431,0.862251,0.458897,0.921887,1.387721,1.487036,1.376907
0.2,1.22904898,2.47151096,0.61118944,1.416871,3.662208,0.2071736,0.6902844,1.086151,1.016226,0.4576715,0.9351503,1.27906,1.487412,1.281331
0.22,1.10585345,2.24328751,0.54514272,0.8704203,3.402929,0.2393948,0.6148652,0.9610889,1.113763,0.538388,0.9105858,1.086921,1.182429,1.243603
0.24,1.07259106,2.40569229,0.47822059,0.7677049,3.666439,0.2374353,0.6898995,1.01147,1.17285,0.4554759,0.773753,0.802829,1.237978,0.9826671
0.25,1.04392857,2.33777406,0.46616433,0.8205066,3.569752,0.2240356,0.8951667,0.9334365,1.040721,0.4254661,0.6387294,0.7317544,1.054272,1.149374
0.26,1.03973096,2.20604681,0.49003515,0.8068824,3.333397,0.1811475,1.072268,0.9267328,1.04292,0.4324301,0.6394144,0.7257824,1.048948,1.227118
0.28,0.95916443,1.6428236,0.56000924,0.7786775,2.332355,0.2150193,1.167321,1.121863,1.042615,0.5292388,0.6773424,0.7231723,0.8074634,1.155741
0.29,0.94588349,1.55475559,0.57545738,0.7630606,2.158851,0.2563467,1.136945,1.222831,1.011954,0.559504,0.7306215,0.705625,0.7308756,1.128104
0.3,0.94418876,1.49390689,0.59675233,0.7262893,2.035004,0.2894197,1.112826,1.282375,1.032924,0.6167592,0.8027835,0.6703026,0.7621711,1.055222
0.32,0.95234205,1.59848672,0.56738374,0.7860178,2.281869,0.3227162,0.852778,1.143029,1.171617,0.6080225,0.8708799,0.5818859,0.6773522,1.179595
0.34,0.95911787,1.62774263,0.56514284,0.931693,2.126066,0.312854,0.6465952,1.174232,1.255685,0.4396573,0.8947237,0.535033,0.7198084,1.513949
0.35,0.94499794,1.60614121,0.5560041,1.001432,2.032351,0.2708636,0.5481169,1.132745,1.213371,0.4171047,0.9059629,0.5202956,0.7947986,1.557936
0.36,0.92739797,1.59294303,0.53992326,1.139017,2.01371,0.2217822,0.4618981,1.062822,1.161484,0.4554733,0.8687368,0.5142636,0.7912107,1.51098
0.38,0.87281408,1.56556841,0.48659925,1.290871,2.050646,0.201719,0.4430915,0.9767791,1.042381,0.4419499,0.6889306,0.4755511,0.6649687,1.324067
0.4,0.81054154,1.5067242,0.43603042,1.255176,2.064641,0.2348787,0.443938,0.832874,0.9325856,0.4036023,0.5371897,0.4473999,0.6136227,1.150049
0.42,0.76453285,1.45150501,0.40269271,1.159507,2.084363,0.2519383,0.4054017,0.8859402,0.8189291,0.4460481,0.4816577,0.4699262,0.5307708,0.8753793
0.44,0.73489111,1.45120726,0.37214873,1.005881,2.192335,0.3088503,0.4221778,0.8303487,0.6999986,0.4406742,0.4886301,0.4779679,0.5134414,0.7034972
0.45,0.72553768,1.43306625,0.3673277,0.9315402,2.187446,0.333859,0.4252718,0.8449796,0.6311081,0.4682355,0.4891225,0.4787703,0.4967816,0.6937999
0.46,0.71047321,1.40763534,0.35859584,0.8873782,2.15751,0.3427279,0.4244992,0.8593184,0.5666397,0.4852087,0.4894001,0.4779271,0.4814317,0.6431643
0.48,0.70376186,1.44463635,0.34284113,0.8442538,2.205745,0.3232868,0.4325865,0.9513967,0.5667593,0.4651785,0.4805679,0.4717626,0.49447,0.5053734
0.5,0.7021596,1.43025497,0.34471344,0.813217,2.163602,0.2819833,0.4960298,1.014214,0.5892218,0.4879673,0.4176163,0.4546955,0.50375,0.5014586
0.55,0.65822307,1.37231262,0.3157135,0.6891968,2.070378,0.2165091,0.5097913,0.9631706,0.5786651,0.5461337,0.3568811,0.354624,0.4861671,0.468937
0.6,0.55963836,1.16053343,0.26987167,0.5343347,1.791035,0.2054274,0.5142639,0.6415582,0.5228443,0.5028103,0.3542598,0.255254,0.3909414,0.443293
0.65,0.46615084,0.8384941,0.25915102,0.4868501,1.256849,0.1464098,0.4246611,0.5110117,0.551811,0.4414068,0.3651741,0.2588021,0.3267079,0.3579756
0.667,0.47856146,0.91979705,0.24899088,0.4721315,1.399559,0.1561293,0.3922527,0.5051562,0.5877029,0.4445027,0.3779492,0.2457888,0.3482211,0.3347827
0.7,0.50826435,1.06090629,0.24350185,0.4589804,1.630588,0.1636315,0.3632261,0.5990415,0.5512133,0.4378119,0.3859973,0.2417143,0.4158933,0.3428102
0.75,0.56410521,1.29429618,0.24585925,0.5396043,1.956509,0.1654161,0.268218,0.8053156,0.489482,0.5021805,0.4273176,0.3132238,0.4069864,0.330904
0.8,0.54714665,1.23067305,0.2432567,0.5395162,1.800632,0.1822486,0.2793678,0.9641882,0.4929194,0.4020413,0.4483795,0.2754921,0.3257017,0.3081264
0.85,0.51147276,1.09964428,0.2378991,0.446881,1.546275,0.2142195,0.297458,1.007496,0.5103607,0.444814,0.4384704,0.2340944,0.2377137,0.2484177
0.9,0.48444405,0.9586088,0.2448194,0.3850947,1.348623,0.2160147,0.3393807,0.9170583,0.4731941,0.4716359,0.4106802,0.2286437,0.2988482,0.239711
0.95,0.4566293,0.81950498,0.25443447,0.3785804,1.129413,0.2462101,0.339096,0.7761345,0.4858734,0.5743393,0.3748234,0.2101893,0.2807958,0.2274671
1.0,0.41275575,0.6739239,0.25279904,0.3515056,0.7809657,0.2591359,0.3168604,0.7621265,0.4548999,0.6109264,0.337881,0.2090337,0.2381538,0.2188244
1.1,0.36316405,0.57452257,0.22956126,0.3166478,0.6134149,0.2235497,0.2348853,0.6895744,0.4223717,0.5352609,0.288932,0.2021401,0.2302915,0.2377362
1.2,0.36456189,0.63185124,0.21034282,0.2950473,0.8566353,0.1831646,0.2433304,0.6352693,0.3696273,0.460597,0.2767893,0.1966641,0.2208823,0.2721739
1.3,0.34784003,0.61057379,0.19816227,0.2537347,0.8781089,0.1768385,0.266082,0.5578076,0.3576389,0.3697331,0.3021827,0.2235471,0.2023619,0.2382049
1.4,0.30916945,0.49898057,0.19156206,0.2098036,0.7044615,0.1830974,0.2734592,0.4379476,0.321407,0.3823456,0.2775466,0.2299258,0.1957799,0.1850897
1.5,0.28023385,0.43830772,0.17916866,0.2057633,0.5967451,0.1678752,0.2684952,0.4093595,0.256998,0.34061,0.2760015,0.2568578,0.1518967,0.15197
1.6,0.25894177,0.40690051,0.16478436,0.1841971,0.5513114,0.1429424,0.2547124,0.3614595,0.2526747,0.3178473,0.2691681,0.2484206,0.1268312,0.1387948
1.7,0.25030739,0.39455487,0.15879614,0.1879037,0.5293351,0.1674856,0.2390675,0.3363788,0.2587204,0.3035465,0.3066158,0.1985945,0.1079579,0.1177755
1.8,0.25782989,0.43173665,0.15397408,0.1972281,0.5939531,0.183478,0.2260389,0.3156205,0.2190382,0.3270293,0.3529752,0.2257893,0.09978434,0.09519389
1.9,0.25313089,0.45854868,0.13973489,0.200508,0.6679873,0.1972015,0.2108837,0.2981035,0.1749626,0.3189738,0.3071933,0.227204,0.100982,0.08044013
2.0,0.23755384,0.45063117,0.12522841,0.1874344,0.6740389,0.1985839,0.1946298,0.2842675,0.1529699,0.2948828,0.2376452,0.2089139,0.1122333,0.06749263
2.2,0.20313931,0.37113127,0.11118863,0.1335479,0.5461501,0.1566434,0.1640019,0.2676383,0.167634,0.2325407,0.232521,0.1677118,0.1098754,0.05626791
2.4,0.18552888,0.33488873,0.10278329,0.1061585,0.4748269,0.1115923,0.1478946,0.2596099,0.1611328,0.2033244,0.2604216,0.1277339,0.1334725,0.05465031
2.5,0.18021067,0.32675862,0.099388,0.09764822,0.4580972,0.1054422,0.145958,0.2559194,0.1437488,0.2282646,0.2426166,0.1102978,0.1405363,0.05378828
2.6,0.17327981,0.31727045,0.09463816,0.09496415,0.4420693,0.09678335,0.143804,0.2516585,0.128692,0.2473405,0.2111869,0.1131055,0.124229,0.05224469
2.8,0.16178694,0.30591601,0.08556275,0.09707586,0.4364367,0.07798697,0.1366217,0.2499613,0.1203409,0.2198009,0.1551936,0.1130743,0.1251853,0.04797881
3.0,0.15388984,0.28231945,0.083884,0.09407867,0.4092225,0.06901398,0.1280575,0.2396946,0.1386374,0.1585815,0.1546933,0.1332553,0.1102428,0.05731071
3.2,0.14670676,0.26330299,0.08174185,0.08333949,0.3682851,0.06100202,0.1163949,0.2238064,0.1123717,0.1905639,0.1630529,0.1440235,0.08378894,0.06714551
3.4,0.13699441,0.24439042,0.07679298,0.07294202,0.3391787,0.06239077,0.1064411,0.2079208,0.1006684,0.1888439,0.15512,0.1277183,0.07114558,0.07456894
3.5,0.13182633,0.23746131,0.07318321,0.06847733,0.3301411,0.06240597,0.1039437,0.1990344,0.09854022,0.1887556,0.1429832,0.1187463,0.06157639,0.07548543
3.6,0.1290276,0.24662609,0.06750349,0.06185955,0.3482866,0.06211835,0.1014121,0.1927335,0.09332308,0.1968264,0.1267521,0.1065288,0.05197103,0.07749212
3.8,0.12470466,0.26772833,0.05808594,0.05517888,0.3858894,0.06125429,0.09647803,0.1825126,0.07865341,0.1953018,0.1197254,0.0784748,0.03944189,0.07884072
4.0,0.12398342,0.28538154,0.05386434,0.05392792,0.4171796,0.06160761,0.09090841,0.1719814,0.08177996,0.1869544,0.1243106,0.06633307,0.0369198,0.07191484
4.2,0.12119852,0.29892037,0.04914045,0.04639361,0.4357395,0.06788582,0.08670031,0.1663985,0.07925768,0.1841883,0.1133726,0.054474,0.03328168,0.06549171
4.4,0.11846237,0.30800626,0.04556184,0.04209716,0.4482281,0.07046687,0.08370962,0.1595795,0.07983176,0.1772152,0.1044984,0.04559056,0.03613953,0.05572937
4.6,0.11510464,0.30658299,0.0432153,0.03665246,0.4469455,0.06866524,0.08042102,0.1518031,0.07244467,0.1641846,0.1079085,0.04148416,0.03964865,0.0559931
4.8,0.11158408,0.29873019,0.04167977,0.0341486,0.4373559,0.06379087,0.07525288,0.1435224,0.07114153,0.1479917,0.1164434,0.03932533,0.04258724,0.05586504
5.0,0.10842413,0.28936013,0.04062685,0.03218822,0.4258085,0.05856387,0.06861509,0.136226,0.07385391,0.1350894,0.1193463,0.03988837,0.04821607,0.05486967
5.5,0.09797617,0.25173874,0.03813212,0.03022262,0.3754033,0.04723005,0.05338087,0.1178457,0.08228255,0.107161,0.1141692,0.04632898,0.05279741,0.05091624
6.0,0.08274711,0.19874746,0.03445118,0.02413489,0.2989173,0.03343695,0.04468251,0.09917849,0.07272877,0.08908115,0.09647933,0.05270664,0.05507277,0.04379941
6.5,0.07064512,0.16322714,0.03057539,0.01990813,0.2462691,0.02609244,0.03669133,0.08193544,0.05553265,0.08119981,0.08137928,0.04916312,0.04769628,0.05122878
7.0,0.06068981,0.12833827,0.02869957,0.02131895,0.1930607,0.02492531,0.03068285,0.07216965,0.04268391,0.07142416,0.07319874,0.04562677,0.03919115,0.05330571
7.5,0.05250976,0.10364757,0.02660241,0.02421213,0.1540401,0.02414026,0.02498077,0.06323241,0.03533483,0.06778845,0.06298727,0.03808821,0.03289521,0.04990777
8.0,0.0453038,0.08640427,0.02375385,0.02516757,0.1254166,0.02405687,0.02017161,0.05287457,0.02947698,0.06830865,0.05292677,0.03102008,0.02522922,0.04369286
8.5,0.03937809,0.07232665,0.02143932,0.02457769,0.1022749,0.02326789,0.0172695,0.0464544,0.0270776,0.0643288,0.04391143,0.02760029,0.01958287,0.03681363
9.0,0.03436564,0.06206922,0.01902709,0.0225492,0.08612444,0.02119667,0.01499547,0.04051819,0.02569318,0.0579256,0.03943744,0.02351437,0.01579491,0.03027252
9.5,0.02999274,0.05544413,0.0162247,0.01981169,0.07821795,0.01841805,0.013074,0.0366147,0.02320012,0.04811979,0.03571273,0.01938066,0.01292378,0.02444664
10.0,0.02646285,0.04999434,0.01400723,0.01658774,0.07081404,0.01705645,0.01144786,0.03325455,0.02173044,0.04186963,0.03215555,0.01558025,0.01123654,0.01935826
